PANDORA
1 67395U 80229J   26064.69466435  .00000000  00000-0  37770-3 0    02
2 67395  97.8045  64.9819 0007017 106.2919 345.2835 14.87868782    04
